XRISM                   
1 57800U 23137A   24273.83016179  .00014796  00000+0  10642-2 0  9990
2 57800  31.0033  65.6945 0008987 162.8133 197.2808 15.03058731 58352
